[{"OBJECT_NAME":"STARLINK-32381","OBJECT_ID":"2024-164S","EPOCH":"2026-03-09T08:37:00.540192","MEAN_MOTION":15.30191281,"ECCENTRICITY":0.00011776,"INCLINATION":53.1606,"RA_OF_ASC_NODE":92.8854,"ARG_OF_PERICENTER":82.0387,"MEAN_ANOMALY":278.0748,"EPHEMERIS_TYPE":0,"CLASSIFICATION_TYPE":"U","NORAD_CAT_ID":61066,"ELEMENT_SET_NO":999,"REV_AT_EPOCH":8342,"BSTAR":2.7520458e-5,"MEAN_MOTION_DOT":4.56e-6,"MEAN_MOTION_DDOT":0},{"OBJECT_NAME":"COSMOS 1862","OBJECT_ID":"1987-055A","EPOCH":"2026-03-09T22:37:02.390592","MEAN_MOTION":15.30492139,"ECCENTRICITY":0.00097484,"INCLINATION":82.4856,"RA_OF_ASC_NODE":47.1862,"ARG_OF_PERICENTER":26.6325,"MEAN_ANOMALY":333.5414,"EPHEMERIS_TYPE":0,"CLASSIFICATION_TYPE":"U","NORAD_CAT_ID":18152,"ELEMENT_SET_NO":999,"REV_AT_EPOCH":8987,"BSTAR":0.00034125048,"MEAN_MOTION_DOT":0.00010107,"MEAN_MOTION_DDOT":0}]
